$$SOE
2461288.500000000, A.D. 2026-Sep-05 00:00:00.0000, 1.865113266636516E+08, 2.081765082983259E+08, 3.588861992747444E+07,
2461295.500000000, A.D. 2026-Sep-12 00:00:00.0000, 1.769927543548628E+08, 2.159230058917351E+08, 4.059143344816096E+07,
2461302.500000000, A.D. 2026-Sep-19 00:00:00.0000, 1.670916076107507E+08, 2.232028243774537E+08, 4.520651821377443E+07,
2461309.500000000, A.D. 2026-Sep-26 00:00:00.0000, 1.568305432105369E+08, 2.300019118949709E+08, 4.972424008927377E+07,
2461316.500000000, A.D. 2026-Oct-03 00:00:00.0000, 1.462328381483327E+08, 2.363073530364922E+08, 5.413524239783119E+07,
2461323.500000000, A.D. 2026-Oct-10 00:00:00.0000, 1.353223299906094E+08, 2.421073815323969E+08, 5.843046258041298E+07,
2461330.500000000, A.D. 2026-Oct-17 00:00:00.0000, 1.241233575016024E+08, 2.473913898190208E+08, 6.260114770479633E+07,
2461337.500000000, A.D. 2026-Oct-24 00:00:00.0000, 1.126607017276261E+08, 2.521499355943876E+08, 6.663886883234313E+07,
2461344.500000000, A.D. 2026-Oct-31 00:00:00.0000, 1.009595277904716E+08, 2.563747454302292E+08, 7.053553424747054E+07,
2461351.500000000, A.D. 2026-Nov-07 00:00:00.0000, 8.904532786677770E+07, 2.600587156552339E+08, 7.428340155147721E+07,
2461358.500000000, A.D. 2026-Nov-14 00:00:00.0000, 7.694386568406743E+07, 2.631959115418301E+08, 7.787508870802382E+07,
2461365.500000000, A.D. 2026-Nov-21 00:00:00.0000, 6.468112084731679E+07, 2.657815656099298E+08, 8.130358429133223E+07,
2461372.500000000, A.D. 2026-Nov-28 00:00:00.0000, 5.228323209133413E+07, 2.678120721469347E+08, 8.456225679631427E+07,
2461379.500000000, A.D. 2026-Dec-05 00:00:00.0000, 3.977644313989213E+07, 2.692849774200876E+08, 8.764486264631328E+07,
2461386.500000000, A.D. 2026-Dec-12 00:00:00.0000, 2.718705139895008E+07, 2.701989688372720E+08, 9.054555316772023E+07,
2461393.500000000, A.D. 2026-Dec-19 00:00:00.0000, 1.454135764077349E+07, 2.705538631975356E+08, 9.325888073712423E+07,
2461400.500000000, A.D. 2026-Dec-26 00:00:00.0000, 1.865616569912040E+06, 2.703505933023570E+08, 9.577980408556749E+07,
2461407.500000000, A.D. 2027-Jan-02 00:00:00.0000, -1.081401142237650E+07, 2.695911928713218E+08, 9.810369276440677E+07,
2461414.500000000, A.D. 2027-Jan-09 00:00:00.0000, -2.347150717680505E+07, 2.682787799058625E+08, 1.002263308064597E+08,
2461421.500000000, A.D. 2027-Jan-16 00:00:00.0000, -3.608103831302151E+07, 2.664175386238165E+08, 1.021439196211941E+08,
2461428.500000000, A.D. 2027-Jan-23 00:00:00.0000, -4.861700335888576E+07, 2.640127000314980E+08, 1.038530801575325E+08,
2461435.500000000, A.D. 2027-Jan-30 00:00:00.0000, -6.105407428124253E+07, 2.610705211844130E+08, 1.053508543529498E+08,
2461442.500000000, A.D. 2027-Feb-06 00:00:00.0000, -7.336723700718206E+07, 2.575982635683306E+08, 1.066347058952934E+08,
2461449.500000000, A.D. 2027-Feb-13 00:00:00.0000, -8.553183041750696E+07, 2.536041719085636E+08, 1.077025204767703E+08,
2461456.500000000, A.D. 2027-Feb-20 00:00:00.0000, -9.752358619661526E+07, 2.490974527026955E+08, 1.085526057290090E+08,
2461463.500000000, A.D. 2027-Feb-27 00:00:00.0000, -1.093186681594848E+08, 2.440882493262944E+08, 1.091836904700674E+08,
2461470.500000000, A.D. 2027-Mar-06 00:00:00.0000, -1.208937080784214E+08, 2.385876156857128E+08, 1.095949231653665E+08,
2461477.500000000, A.D. 2027-Mar-13 00:00:00.0000, -1.322258396530579E+08, 2.326074905368318E+08, 1.097858699532196E+08,
2461484.500000000, A.D. 2027-Mar-20 00:00:00.0000, -1.432927317832444E+08, 2.261606716921008E+08, 1.097565122968621E+08,
2461491.500000000, A.D. 2027-Mar-27 00:00:00.0000, -1.540726209777944E+08, 2.192607896080362E+08, 1.095072442191100E+08,
2461498.500000000, A.D. 2027-Apr-03 00:00:00.0000, -1.645443427351434E+08, 2.119222803414446E+08, 1.090388691166548E+08,
2461505.500000000, A.D. 2027-Apr-10 00:00:00.0000, -1.746873618736812E+08, 2.041603579287774E+08, 1.083525961687535E+08,
2461512.500000000, A.D. 2027-Apr-17 00:00:00.0000, -1.844818018277360E+08, 1.959909862000071E+08, 1.074500363535393E+08,
2461519.500000000, A.D. 2027-Apr-24 00:00:00.0000, -1.939084728666084E+08, 1.874308499847547E+08, 1.063331980736217E+08,
2461526.500000000, A.D. 2027-May-01 00:00:00.0000, -2.029488989716073E+08, 1.784973257525039E+08, 1.050044823771598E+08,
2461533.500000000, A.D. 2027-May-08 00:00:00.0000, -2.115853430963630E+08, 1.692084524431094E+08, 1.034666778161800E+08,
2461540.500000000, A.D. 2027-May-15 00:00:00.0000, -2.198008323411714E+08, 1.595829034442081E+08, 1.017229551658459E+08,
2461547.500000000, A.D. 2027-May-22 00:00:00.0000, -2.275791846393909E+08, 1.496399571297641E+08, 9.977686194710723E+07,
2461554.500000000, A.D. 2027-May-29 00:00:00.0000, -2.349050336168073E+08, 1.393994644946583E+08, 9.763231632703114E+07,
2461561.500000000, A.D. 2027-Jun-05 00:00:00.0000, -2.417638507489244E+08, 1.288818169987409E+08, 9.529360056293102E+07,
2461568.500000000, A.D. 2027-Jun-12 00:00:00.0000, -2.481419668500276E+08, 1.181079150343331E+08, 9.276535421148625E+07,
2461575.500000000, A.D. 2027-Jun-19 00:00:00.0000, -2.540265932442932E+08, 1.070991360757901E+08, 9.005256706069830E+07,
2461582.500000000, A.D. 2027-Jun-26 00:00:00.0000, -2.594058423449359E+08, 9.587730223717618E+07, 8.716057173340130E+07,
2461589.500000000, A.D. 2027-Jul-03 00:00:00.0000, -2.642687475103433E+08, 8.446464722701538E+07, 8.409503594366087E+07,
2461596.500000000, A.D. 2027-Jul-10 00:00:00.0000, -2.686052821382248E+08, 7.288378268758883E+07, 8.086195439567137E+07,
2461603.500000000, A.D. 2027-Jul-17 00:00:00.0000, -2.724063779546186E+08, 6.115766385787053E+07, 7.746764031005979E+07,
2461610.500000000, A.D. 2027-Jul-24 00:00:00.0000, -2.756639423290747E+08, 4.930955447452352E+07, 7.391871654833339E+07,
2461617.500000000, A.D. 2027-Jul-31 00:00:00.0000, -2.783708741862166E+08, 3.736299112297764E+07, 7.022210630586518E+07,
2461624.500000000, A.D. 2027-Aug-07 00:00:00.0000, -2.805210786897151E+08, 2.534174816545391E+07, 6.638502347353096E+07,
2461631.500000000, A.D. 2027-Aug-14 00:00:00.0000, -2.821094829728355E+08, 1.326980296543265E+07, 6.241496284611669E+07,
2461638.500000000, A.D. 2027-Aug-21 00:00:00.0000, -2.831320522748951E+08, 1.171298019640043E+06, 5.831968983622541E+07,
2461645.500000000, A.D. 2027-Aug-28 00:00:00.0000, -2.835858030234685E+08, -1.092949881225630E+07, 5.410722946618412E+07,
2461652.500000000, A.D. 2027-Sep-04 00:00:00.0000, -2.834688139920293E+08, -2.300823348550585E+07, 4.978585493157301E+07,
2461659.500000000, A.D. 2027-Sep-11 00:00:00.0000, -2.827802368676243E+08, -3.504050502768709E+07, 4.536407578741407E+07,
2461666.500000000, A.D. 2027-Sep-18 00:00:00.0000, -2.815203060287048E+08, -4.700190553055624E+07, 4.085062566897169E+07,
2461673.500000000, A.D. 2027-Sep-25 00:00:00.0000, -2.796903472178146E+08, -5.886806095915923E+07, 3.625444949719156E+07,
2461680.500000000, A.D. 2027-Oct-02 00:00:00.0000, -2.772927849437387E+08, -7.061467277031571E+07, 3.158469014863982E+07,
2461687.500000000, A.D. 2027-Oct-09 00:00:00.0000, -2.743311485209577E+08, -8.221756036622839E+07, 2.685067458221100E+07,
2461694.500000000, A.D. 2027-Oct-16 00:00:00.0000, -2.708100766279219E+08, -9.365270443891795E+07, 2.206189940875585E+07,
2461701.500000000, A.D. 2027-Oct-23 00:00:00.0000, -2.667353200595359E+08, -1.048962911889672E+08, 1.722801586992032E+07,
2461708.500000000, A.D. 2027-Oct-30 00:00:00.0000, -2.621137422136705E+08, -1.159247567743717E+08, 1.235881422774983E+07,
2461715.500000000, A.D. 2027-Nov-06 00:00:00.0000, -2.569533183730178E+08, -1.267148308240117E+08, 7.464207750427105E+06,
2461722.500000000, A.D. 2027-Nov-13 00:00:00.0000, -2.512631356596482E+08, -1.372435810541624E+08, 2.554216296586893E+06,
2461729.500000000, A.D. 2027-Nov-20 00:00:00.0000, -2.450533906575496E+08, -1.474884611333015E+08, -2.361050952333242E+06,
2461736.500000000, A.D. 2027-Nov-27 00:00:00.0000, -2.383353829853944E+08, -1.574273587772197E+08, -7.271413519967273E+06,
2461743.500000000, A.D. 2027-Dec-04 00:00:00.0000, -2.311215067356994E+08, -1.670386430894122E+08, -1.216663816138594E+07,
2461750.500000000, A.D. 2027-Dec-11 00:00:00.0000, -2.234252402153980E+08, -1.763012120286909E+08, -1.703645791042527E+07,
2461757.500000000, A.D. 2027-Dec-18 00:00:00.0000, -2.152611335987673E+08, -1.851945402580803E+08, -2.187059169105421E+07,
2461764.500000000, A.D. 2027-Dec-25 00:00:00.0000, -2.066447942368818E+08, -1.936987272843775E+08, -2.665876449346130E+07,
2461771.500000000, A.D. 2028-Jan-01 00:00:00.0000, -1.975928694837381E+08, -2.017945457646165E+08, -3.139072809962179E+07,
$$EOE